norad_id,name,regime,epoch,line1,line2,inclination,eccentricity,mean_motion,raan,arg_pericenter,mean_anomaly
43231,O3B FM15,MEO,21087.13643274,1 43231U 18024A   21087.13643274 -.00000017  00000-0  00000-0 0    19\,2 43231   0.0507  14.3925 0002755 348.0046 357.6028  5.00115511 55623,0.0507,0.0002755,5.00115511,14.3925,348.0046,357.6028
43231,O3B FM15,MEO,21087.73610495,1 43231U 18024A   21087.73610495 -.00000017  00000-0  00000-0 0    14\,2 43231   0.0507  14.3821 0002754 348.6123 357.0060  5.00115490 55658,0.0507,0.0002754,5.0011549,14.3821,348.6123,357.006
43231,O3B FM15,MEO,21091.13424555,1 43231U 18024A   21091.13424555 -.00000021  00000-0  00000-0 0    18\,2 43231   0.0510  14.5497 0002747 351.8498 353.6027  5.00115504 55826,0.051,0.0002747,5.00115504,14.5497,351.8498,353.6027
43231,O3B FM15,MEO,21092.33358939,1 43231U 18024A   21092.33358939 -.00000024  00000-0  00000-0 0    16\,2 43231   0.0511  14.5262 0002744 353.1469 352.3292  5.00115492 55878,0.0511,0.0002744,5.00115492,14.5262,353.1469,352.3292
43231,O3B FM15,MEO,21092.73337047,1 43231U 18024A   21092.73337047 -.00000025  00000-0  00000-0 0    18\,2 43231   0.0511  14.5394 0002743 353.5091 351.9538  5.00115502 55890,0.0511,0.0002743,5.00115502,14.5394,353.5091,351.9538
43231,O3B FM15,MEO,21093.33304219,1 43231U 18024A   21093.33304219 -.00000027  00000-0  00000-0 0    12\,2 43231   0.0511  14.5782 0002742 354.0713 351.3528  5.00115508 55920,0.0511,0.0002742,5.00115508,14.5782,354.0713,351.3528
43231,O3B FM15,MEO,21093.73282338,1 43231U 18024A   21093.73282338 -.00000028  00000-0  00000-0 0    14\,2 43231   0.0512  14.5999 0002741 354.4458 350.9566  5.00115509 55940,0.0512,0.0002741,5.00115509,14.5999,354.4458,350.9566
43231,O3B FM15,MEO,21094.33249504,1 43231U 18024A   21094.33249504 -.00000029  00000-0  00000-0 0    10\,2 43231   0.0512  14.7053 0002739 354.9619 350.3352  5.00115523 55981,0.0512,0.0002739,5.00115523,14.7053,354.9619,350.3352
43231,O3B FM15,MEO,21094.73227628,1 43231U 18024A   21094.73227628 -.00000030  00000-0  00000-0 0    19\,2 43231   0.0512  14.7112 0002739 355.3991 349.8922  5.00115524 56006,0.0512,0.0002739,5.00115524,14.7112,355.3991,349.8922
43231,O3B FM15,MEO,21095.73172927,1 43231U 18024A   21095.73172927 -.00000031  00000-0  00000-0 0    12\,2 43231   0.0513  14.7592 0002737 356.3729 348.8706  5.00115538 56056,0.0513,0.0002737,5.00115538,14.7592,356.3729,348.8706
43231,O3B FM15,MEO,21096.13151039,1 43231U 18024A   21096.13151039 -.00000032  00000-0  00000-0 0    19\,2 43231   0.0513  14.7593 0002737 356.8168 348.4266  5.00115553 56075,0.0513,0.0002737,5.00115553,14.7593,356.8168,348.4266
43231,O3B FM15,MEO,21096.53129171,1 43231U 18024A   21096.53129171 -.00000032  00000-0  00000-0 0    15\,2 43231   0.0513  14.8131 0002736 357.1905 347.9994  5.00115553 56090,0.0513,0.0002736,5.00115553,14.8131,357.1905,347.9994
43231,O3B FM15,MEO,21097.13096370,1 43231U 18024A   21097.13096370 -.00000033  00000-0  00000-0 0    17\,2 43231   0.0514  14.8179 0002735 357.7887 347.3968  5.00115555 56128,0.0514,0.0002735,5.00115555,14.8179,357.7887,347.3968
43231,O3B FM15,MEO,21097.53074496,1 43231U 18024A   21097.53074496 -.00000033  00000-0  00000-0 0    16\,2 43231   0.0514  14.8503 0002734 358.1781 346.9752  5.00115564 56144,0.0514,0.0002734,5.00115564,14.8503,358.1781,346.9752
43231,O3B FM15,MEO,21097.93052625,1 43231U 18024A   21097.93052625 -.00000032  00000-0  00000-0 0    19\,2 43231   0.0514  14.7981 0002734 358.5910 346.6148  5.00115569 56164,0.0514,0.0002734,5.00115569,14.7981,358.591,346.6148
43231,O3B FM15,MEO,21099.32976092,1 43231U 18024A   21099.32976092 -.00000031  00000-0  00000-0 0    16\,2 43231   0.0514  14.8725 0002730 359.9366 345.1961  5.00115593 56239,0.0514,0.000273,5.00115593,14.8725,359.9366,345.1961
43231,O3B FM15,MEO,21099.72954225,1 43231U 18024A   21099.72954225 -.00000031  00000-0  00000-0 0    14\,2 43231   0.0515  14.8764 0002729   0.3252 344.8040  5.00115603 56250,0.0515,0.0002729,5.00115603,14.8764,0.3252,344.804
43231,O3B FM15,MEO,21099.92943290,1 43231U 18024A   21099.92943290 -.00000031  00000-0  00000+0 0  2714\,2 43231   0.0515  14.8195 0002729   0.5604 344.6258  5.00115606 56422,0.0515,0.0002729,5.00115606,14.8195,0.5604,344.6258
43231,O3B FM15,MEO,21100.32921428,1 43231U 18024A   21100.32921428 -.00000030  00000-0  00000-0 0    11\,2 43231   0.0515  14.8273 0002728   0.9599 344.2190  5.00115612 56287,0.0515,0.0002728,5.00115612,14.8273,0.9599,344.219
43231,O3B FM15,MEO,21100.52910501,1 43231U 18024A   21100.52910501 -.00000030  00000-0  00000-0 0    13\,2 43231   0.0515  14.8249 0002727   1.1437 344.0379  5.00115610 56299,0.0515,0.0002727,5.0011561,14.8249,1.1437,344.0379
43231,O3B FM15,MEO,21101.52855844,1 43231U 18024A   21101.52855844 -.00000028  00000-0  00000-0 0    19\,2 43231   0.0515  14.8063 0002724   2.2078 342.9936  5.00115625 56341,0.0515,0.0002724,5.00115625,14.8063,2.2078,342.9936
43231,O3B FM15,MEO,21102.32812135,1 43231U 18024A   21102.32812135 -.00000027  00000-0  00000-0 0    13\,2 43231   0.0516  14.8453 0002724   2.9227 342.2406  5.00115619 56380,0.0516,0.0002724,5.00115619,14.8453,2.9227,342.2406
43231,O3B FM15,MEO,21104.32702819,1 43231U 18024A   21104.32702819 -.00000024  00000-0  00000-0 0    19\,2 43231   0.0516  14.8270 0002722   4.9098 340.2740  5.00115622 56487,0.0516,0.0002722,5.00115622,14.827,4.9098,340.274
43231,O3B FM15,MEO,21106.12604348,1 43231U 18024A   21106.12604348 -.00000022  00000-0  00000-0 0    15\,2 43231   0.0517  14.7999 0002721   6.6992 338.5133  5.00115663 56577,0.0517,0.0002721,5.00115663,14.7999,6.6992,338.5133
43231,O3B FM15,MEO,21106.72571567,1 43231U 18024A   21106.72571567 -.00000022  00000-0  00000-0 0    17\,2 43231   0.0518  14.7560 0002721   7.3424 337.9144  5.00115636 56597,0.0518,0.0002721,5.00115636,14.756,7.3424,337.9144
43231,O3B FM15,MEO,21107.32538812,1 43231U 18024A   21107.32538812 -.00000021  00000-0  00000-0 0    19\,2 43231   0.0518  14.8408 0002720   7.8694 337.3031  5.00115587 56631,0.0518,0.000272,5.00115587,14.8408,7.8694,337.3031
43231,O3B FM15,MEO,21107.72516937,1 43231U 18024A   21107.72516937 -.00000021  00000-0  00000-0 0    17\,2 43231   0.0518  14.7734 0002720   8.2855 336.9545  5.00115585 56640,0.0518,0.000272,5.00115585,14.7734,8.2855,336.9545
43231,O3B FM15,MEO,21108.52473173,1 43231U 18024A   21108.52473173 -.00000020  00000-0  00000-0 0    19\,2 43231   0.0518  14.7883 0002720   9.0952 336.1305  5.00115587 56684,0.0518,0.000272,5.00115587,14.7883,9.0952,336.1305
43231,O3B FM15,MEO,21108.72462211,1 43231U 18024A   21108.72462211 -.00000020  00000-0  00000-0 0    12\,2 43231   0.0518  14.8469 0002718   9.3249 335.8423  5.00115604 56704,0.0518,0.0002718,5.00115604,14.8469,9.3249,335.8423
43231,O3B FM15,MEO,21109.32429415,1 43231U 18024A   21109.32429415 -.00000019  00000-0  00000-0 0    16\,2 43231   0.0519  14.8631 0002719   9.8933 335.2579  5.00115580 56734,0.0519,0.0002719,5.0011558,14.8631,9.8933,335.2579
43231,O3B FM15,MEO,21109.52418467,1 43231U 18024A   21109.52418467 -.00000019  00000-0  00000-0 0    13\,2 43231   0.0519  14.8083 0002719  10.1020 335.1042  5.00115586 56748,0.0519,0.0002719,5.00115586,14.8083,10.102,335.1042
43231,O3B FM15,MEO,21110.32374701,1 43231U 18024A   21110.32374701 -.00000018  00000-0  00000-0 0    14\,2 43231   0.0519  14.8785 0002719  10.8913 334.2450  5.00115585 56781,0.0519,0.0002719,5.00115585,14.8785,10.8913,334.245
43231,O3B FM15,MEO,21110.32374704,1 43231U 18024A   21110.32374704 -.00000018  00000-0  00000+0 0  2748\,2 43231   0.0519  14.8185 0002719  10.9129 334.2833  5.00115584 56947,0.0519,0.0002719,5.00115584,14.8185,10.9129,334.2833
43231,O3B FM15,MEO,21110.72352832,1 43231U 18024A   21110.72352832 -.00000018  00000-0  00000-0 0    19\,2 43231   0.0519  14.8796 0002718  11.3196 333.8158  5.00115573 56801,0.0519,0.0002718,5.00115573,14.8796,11.3196,333.8158
43231,O3B FM15,MEO,21111.32320032,1 43231U 18024A   21111.32320032 -.00000017  00000-0  00000-0 0    12\,2 43231   0.0519  14.8835 0002718  11.8446 333.2872  5.00115552 56835,0.0519,0.0002718,5.00115552,14.8835,11.8446,333.2872
43231,O3B FM15,MEO,21111.72298154,1 43231U 18024A   21111.72298154 -.00000017  00000-0  00000-0 0    15\,2 43231   0.0519  14.8241 0002717  12.2515 332.9398  5.00115550 56856,0.0519,0.0002717,5.0011555,14.8241,12.2515,332.9398
43231,O3B FM15,MEO,21112.32265322,1 43231U 18024A   21112.32265322 -.00000017  00000-0  00000-0 0    13\,2 43231   0.0519  14.8202 0002717  12.8692 332.3263  5.00115558 56881,0.0519,0.0002717,5.00115558,14.8202,12.8692,332.3263
43231,O3B FM15,MEO,21112.52254397,1 43231U 18024A   21112.52254397 -.00000016  00000-0  00000-0 0    14\,2 43231   0.0519  14.8201 0002717  13.0695 332.1262  5.00115546 56891,0.0519,0.0002717,5.00115546,14.8201,13.0695,332.1262
43231,O3B FM15,MEO,21112.92232532,1 43231U 18024A   21112.92232532 -.00000016  00000-0  00000-0 0    15\,2 43231   0.0519  14.8120 0002716  13.4751 331.7289  5.00115534 56911,0.0519,0.0002716,5.00115534,14.812,13.4751,331.7289
43231,O3B FM15,MEO,21113.52199707,1 43231U 18024A   21113.52199707 -.00000016  00000-0  00000-0 0    18\,2 43231   0.0519  14.8475 0002714  14.0909 331.0780  5.00115538 56940,0.0519,0.0002714,5.00115538,14.8475,14.0909,331.078
43231,O3B FM15,MEO,21114.32155974,1 43231U 18024A   21114.32155974 -.00000016  00000-0  00000-0 0    15\,2 43231   0.0519  14.7778 0002714  14.8921 330.3470  5.00115520 56980,0.0519,0.0002714,5.0011552,14.7778,14.8921,330.347
43231,O3B FM15,MEO,21114.52145033,1 43231U 18024A   21114.52145033 -.00000015  00000-0  00000+0 0  2753\,2 43231   0.0519  14.7750 0002714  15.1050 330.1371  5.00115523 57158,0.0519,0.0002714,5.00115523,14.775,15.105,330.1371
43231,O3B FM15,MEO,21114.72134101,1 43231U 18024A   21114.72134101 -.00000015  00000-0  00000-0 0    17\,2 43231   0.0519  14.7747 0002714  15.2777 329.9648  5.00115517 57001,0.0519,0.0002714,5.00115517,14.7747,15.2777,329.9648
